[{"OBJECT_NAME":"GEESAT-5 03","OBJECT_ID":"2025-201C","EPOCH":"2026-03-09T15:48:23.402016","MEAN_MOTION":14.83793189,"ECCENTRICITY":0.00114449,"INCLINATION":49.9855,"RA_OF_ASC_NODE":140.9561,"ARG_OF_PERICENTER":240.5429,"MEAN_ANOMALY":119.4368,"EPHEMERIS_TYPE":0,"CLASSIFICATION_TYPE":"U","NORAD_CAT_ID":65552,"ELEMENT_SET_NO":999,"REV_AT_EPOCH":2701,"BSTAR":0.00035775974,"MEAN_MOTION_DOT":2.771e-5,"MEAN_MOTION_DDOT":0},{"OBJECT_NAME":"LEMUR-2-SONNENBLUME","OBJECT_ID":"2026-004E","EPOCH":"2026-03-09T22:21:50.544864","MEAN_MOTION":14.87695764,"ECCENTRICITY":0.00096588,"INCLINATION":97.7992,"RA_OF_ASC_NODE":69.0847,"ARG_OF_PERICENTER":106.8062,"MEAN_ANOMALY":253.4215,"EPHEMERIS_TYPE":0,"CLASSIFICATION_TYPE":"U","NORAD_CAT_ID":67367,"ELEMENT_SET_NO":999,"REV_AT_EPOCH":853,"BSTAR":0.00074909668,"MEAN_MOTION_DOT":6.779e-5,"MEAN_MOTION_DDOT":0}]
